{
  "type": "FeatureCollection",
  "features": [
    {
      "type": "Feature",
      "properties": {
        "norad_id": 66909,
        "name": "SILVERSAT",
        "group": "stations",
        "lat": 47.53103002453224,
        "lon": -167.39450084994385,
        "alt_km": 402.1568515710969,
        "timestamp": "2025-12-26T18:39:31.032569+00:00",
        "meta_object_name": "SILVERSAT",
        "meta_object_id": "1998-067XV",
        "meta_epoch": "2025-12-26T12:00:46.912608",
        "meta_mean_motion": 15.53512588,
        "meta_eccentricity": 0.00037731,
        "meta_inclination": 51.6312,
        "meta_ra_of_asc_node": 73.9315,
        "meta_arg_of_pericenter": 313.4073,
        "meta_mean_anomaly": 46.6603,
        "meta_ephemeris_type": 0,
        "meta_classification_type": "U",
        "meta_norad_cat_id": 66909,
        "meta_element_set_no": 999,
        "meta_rev_at_epoch": 375,
        "meta_bstar": 0.0010737482,
        "meta_mean_motion_dot": 0.00069652,
        "meta_mean_motion_ddot": 0,
        "tle_line1": "1 66909U 98067XV  25360.50054297  .00069652  00000+0  10737-2 0  9995",
        "tle_line2": "2 66909  51.6312  73.9315 0003773 313.4073  46.6603 15.53512588  3752"
      },
      "geometry": {
        "type": "Point",
        "coordinates": [
          -167.39450084994385,
          47.53103002453224
        ]
      }
    },
    {
      "type": "Feature",
      "properties": {
        "norad_id": 66910,
        "name": "1998-067XW",
        "group": "stations",
        "lat": 43.55319533101233,
        "lon": -156.34279933813676,
        "alt_km": 403.14721322056175,
        "timestamp": "2025-12-26T18:39:31.032578+00:00",
        "meta_object_name": "1998-067XW",
        "meta_object_id": "1998-067XW",
        "meta_epoch": "2025-12-26T15:03:47.087712",
        "meta_mean_motion": 15.53433211,
        "meta_eccentricity": 0.00037023,
        "meta_inclination": 51.6299,
        "meta_ra_of_asc_node": 73.2784,
        "meta_arg_of_pericenter": 284.4746,
        "meta_mean_anomaly": 75.5833,
        "meta_ephemeris_type": 0,
        "meta_classification_type": "U",
        "meta_norad_cat_id": 66910,
        "meta_element_set_no": 999,
        "meta_rev_at_epoch": 377,
        "meta_bstar": 0.0010494824,
        "meta_mean_motion_dot": 0.00067854,
        "meta_mean_motion_ddot": 0,
        "tle_line1": "1 66910U 98067XW  25360.62762833  .00067854  00000+0  10495-2 0  9995",
        "tle_line2": "2 66910  51.6299  73.2784 0003702 284.4746  75.5833 15.53433211  3770"
      },
      "geometry": {
        "type": "Point",
        "coordinates": [
          -156.34279933813676,
          43.55319533101233
        ]
      }
    },
    {
      "type": "Feature",
      "properties": {
        "norad_id": 66911,
        "name": "1998-067XX",
        "group": "stations",
        "lat": 28.054539332674494,
        "lon": -132.49506770182117,
        "alt_km": 403.5970033749345,
        "timestamp": "2025-12-26T18:39:31.032588+00:00",
        "meta_object_name": "1998-067XX",
        "meta_object_id": "1998-067XX",
        "meta_epoch": "2025-12-26T11:52:19.081920",
        "meta_mean_motion": 15.53969141,
        "meta_eccentricity": 0.00034926,
        "meta_inclination": 51.6301,
        "meta_ra_of_asc_node": 73.8915,
        "meta_arg_of_pericenter": 292.742,
        "meta_mean_anomaly": 67.3201,
        "meta_ephemeris_type": 0,
        "meta_classification_type": "U",
        "meta_norad_cat_id": 66911,
        "meta_element_set_no": 999,
        "meta_rev_at_epoch": 374,
        "meta_bstar": 0.0011708767,
        "meta_mean_motion_dot": 0.00077346,
        "meta_mean_motion_ddot": 0,
        "tle_line1": "1 66911U 98067XX  25360.49466530  .00077346  00000+0  11709-2 0  9992",
        "tle_line2": "2 66911  51.6301  73.8915 0003492 292.7420  67.3201 15.53969141  3745"
      },
      "geometry": {
        "type": "Point",
        "coordinates": [
          -132.49506770182117,
          28.054539332674494
        ]
      }
    },
    {
      "type": "Feature",
      "properties": {
        "norad_id": 66912,
        "name": "1998-067XY",
        "group": "stations",
        "lat": 43.89019630921159,
        "lon": 122.3048439712685,
        "alt_km": 404.68524299318415,
        "timestamp": "2025-12-26T18:39:31.032598+00:00",
        "meta_object_name": "1998-067XY",
        "meta_object_id": "1998-067XY",
        "meta_epoch": "2025-12-26T12:12:45.085824",
        "meta_mean_motion": 15.52489248,
        "meta_eccentricity": 0.00038231,
        "meta_inclination": 51.6314,
        "meta_ra_of_asc_node": 73.9869,
        "meta_arg_of_pericenter": 301.1826,
        "meta_mean_anomaly": 58.8789,
        "meta_ephemeris_type": 0,
        "meta_classification_type": "U",
        "meta_norad_cat_id": 66912,
        "meta_element_set_no": 999,
        "meta_rev_at_epoch": 374,
        "meta_bstar": 0.00078444064,
        "meta_mean_motion_dot": 0.00048771,
        "meta_mean_motion_ddot": 0,
        "tle_line1": "1 66912U 98067XY  25360.50885516  .00048771  00000+0  78444-3 0  9994",
        "tle_line2": "2 66912  51.6314  73.9869 0003823 301.1826  58.8789 15.52489248  3742"
      },
      "geometry": {
        "type": "Point",
        "coordinates": [
          122.3048439712685,
          43.89019630921159
        ]
      }
    }
  ]
}